{
  "norad_id": 49258,
  "name": "SHIYAN-10 01 (SY-10 01)",
  "history": [
    {
      "epoch": "2026-03-19T16:11:52.719072Z",
      "apogee_km": 38677.205581090304,
      "perigee_km": 1672.5185677165737,
      "latitude_deg": 0.00022145425140036865,
      "longitude_deg": 170.19244541182525,
      "height_km": 7292.939377484382,
      "semi_major_axis_km": 26552.99907440344,
      "eccentricity": 0.69680805,
      "inclination_deg": 63.1045,
      "raan_deg": 230.4083,
      "arg_perigee_deg": 269.9215,
      "mean_anomaly_deg": 17.1698,
      "mean_motion_rev_day": 2.00646871
    },
    {
      "epoch": "2026-03-25T03:46:10.985376Z",
      "apogee_km": 38669.80014978125,
      "perigee_km": 1678.8718579414717,
      "latitude_deg": 0.00024224722831910412,
      "longitude_deg": -9.433086042288032,
      "height_km": 7309.245354484447,
      "semi_major_axis_km": 26552.473003861363,
      "eccentricity": 0.69656277,
      "inclination_deg": 63.1051,
      "raan_deg": 229.7633,
      "arg_perigee_deg": 269.9206,
      "mean_anomaly_deg": 17.2146,
      "mean_motion_rev_day": 2.00652834
    },
    {
      "epoch": "2026-04-24T13:40:10.587072Z",
      "apogee_km": 38631.46483625295,
      "perigee_km": 1725.7117203873095,
      "latitude_deg": -5.430202916044287e-05,
      "longitude_deg": 168.53371181989874,
      "height_km": 7390.615886013878,
      "semi_major_axis_km": 26556.72527832013,
      "eccentricity": 0.69484759,
      "inclination_deg": 63.1016,
      "raan_deg": 226.2134,
      "arg_perigee_deg": 269.8974,
      "mean_anomaly_deg": 17.4139,
      "mean_motion_rev_day": 2.00604643
    },
    {
      "epoch": "2026-04-26T13:31:26.226336Z",
      "apogee_km": 38628.62233695188,
      "perigee_km": 1728.212143729219,
      "latitude_deg": 0.00017346797205332817,
      "longitude_deg": 168.52058125759362,
      "height_km": 7393.377429310852,
      "semi_major_axis_km": 26556.55424034055,
      "eccentricity": 0.69475147,
      "inclination_deg": 63.1045,
      "raan_deg": 225.985,
      "arg_perigee_deg": 269.8945,
      "mean_anomaly_deg": 17.417,
      "mean_motion_rev_day": 2.00606581
    },
    {
      "epoch": "2026-04-27T13:27:03.923712Z",
      "apogee_km": 38627.40303712252,
      "perigee_km": 1729.2671149092275,
      "latitude_deg": 0.000178300579359448,
      "longitude_deg": 168.50985093565274,
      "height_km": 7394.812278335848,
      "semi_major_axis_km": 26556.472076015878,
      "eccentricity": 0.6947108,
      "inclination_deg": 63.1064,
      "raan_deg": 225.8672,
      "arg_perigee_deg": 269.895,
      "mean_anomaly_deg": 17.4216,
      "mean_motion_rev_day": 2.00607512
    },
    {
      "epoch": "2026-04-28T01:24:52.943040Z",
      "apogee_km": 38626.66070741886,
      "perigee_km": 1729.951373890377,
      "latitude_deg": 0.00015540198401610094,
      "longitude_deg": -11.49413455898341,
      "height_km": 7395.795532541443,
      "semi_major_axis_km": 26556.44304065462,
      "eccentricity": 0.6946847,
      "inclination_deg": 63.107,
      "raan_deg": 225.8103,
      "arg_perigee_deg": 269.8963,
      "mean_anomaly_deg": 17.4252,
      "mean_motion_rev_day": 2.00607841
    },
    {
      "epoch": "2026-04-29T01:20:29.935392Z",
      "apogee_km": 38625.344505835616,
      "perigee_km": 1731.269693551898,
      "latitude_deg": -1.6749355596397e-05,
      "longitude_deg": -11.503350334930536,
      "height_km": 7396.498538885924,
      "semi_major_axis_km": 26556.44409969376,
      "eccentricity": 0.69463507,
      "inclination_deg": 63.1042,
      "raan_deg": 225.6903,
      "arg_perigee_deg": 269.9086,
      "mean_anomaly_deg": 17.4307,
      "mean_motion_rev_day": 2.00607829
    },
    {
      "epoch": "2026-05-02T01:07:21.954432Z",
      "apogee_km": 38620.82350159527,
      "perigee_km": 1735.1358686514513,
      "latitude_deg": 6.703753812532003e-06,
      "longitude_deg": -11.51764600709994,
      "height_km": 7410.052895625995,
      "semi_major_axis_km": 26556.11668512336,
      "eccentricity": 0.69448572,
      "inclination_deg": 63.091,
      "raan_deg": 225.3392,
      "arg_perigee_deg": 269.8898,
      "mean_anomaly_deg": 17.4771,
      "mean_motion_rev_day": 2.00611539
    },
    {
      "epoch": "2026-05-05T00:54:07.026048Z",
      "apogee_km": 38617.87887896151,
      "perigee_km": 1737.4233878841815,
      "latitude_deg": 7.291787799527473e-05,
      "longitude_deg": -11.478772894102802,
      "height_km": 7417.468928209132,
      "semi_major_axis_km": 26555.788133422844,
      "eccentricity": 0.6943958,
      "inclination_deg": 63.1086,
      "raan_deg": 225.0023,
      "arg_perigee_deg": 269.8884,
      "mean_anomaly_deg": 17.5045,
      "mean_motion_rev_day": 2.00615262
    },
    {
      "epoch": "2026-05-06T12:47:27.393216Z",
      "apogee_km": 38616.23580814993,
      "perigee_km": 1738.7858324938707,
      "latitude_deg": 0.0001124539373675876,
      "longitude_deg": 168.54361085522385,
      "height_km": 7419.9073531371,
      "semi_major_axis_km": 26555.6478203219,
      "eccentricity": 0.69434288,
      "inclination_deg": 63.108,
      "raan_deg": 224.8277,
      "arg_perigee_deg": 269.8879,
      "mean_anomaly_deg": 17.5115,
      "mean_motion_rev_day": 2.00616852
    },
    {
      "epoch": "2026-05-08T00:40:46.274304Z",
      "apogee_km": 38614.23153568857,
      "perigee_km": 1740.5116003519406,
      "latitude_deg": -3.8141840168990355e-05,
      "longitude_deg": -11.429756315273783,
      "height_km": 7421.508061357362,
      "semi_major_axis_km": 26555.508568020257,
      "eccentricity": 0.69427629,
      "inclination_deg": 63.1068,
      "raan_deg": 224.6534,
      "arg_perigee_deg": 269.8891,
      "mean_anomaly_deg": 17.5147,
      "mean_motion_rev_day": 2.0061843
    },
    {
      "epoch": "2026-05-12T00:22:51.424608Z",
      "apogee_km": 38609.65247003785,
      "perigee_km": 1744.3453576376724,
      "latitude_deg": 0.0001795162257782736,
      "longitude_deg": -11.350601562045988,
      "height_km": 7424.51735048589,
      "semi_major_axis_km": 26555.135913837763,
      "eccentricity": 0.69412763,
      "inclination_deg": 63.1066,
      "raan_deg": 224.1885,
      "arg_perigee_deg": 269.8908,
      "mean_anomaly_deg": 17.5214,
      "mean_motion_rev_day": 2.00622653
    },
    {
      "epoch": "2026-05-13T12:16:06.739968Z",
      "apogee_km": 38608.13229545101,
      "perigee_km": 1745.548391414237,
      "latitude_deg": -7.073358968026285e-06,
      "longitude_deg": 168.6873018032534,
      "height_km": 7427.578356610226,
      "semi_major_axis_km": 26554.977343432623,
      "eccentricity": 0.6940805,
      "inclination_deg": 63.1053,
      "raan_deg": 224.0172,
      "arg_perigee_deg": 269.8888,
      "mean_anomaly_deg": 17.5316,
      "mean_motion_rev_day": 2.0062445
    }
  ]
}